[{"OBJECT_NAME":"ONEWEB-0520","OBJECT_ID":"2022-138AB","EPOCH":"2026-04-25T01:23:38.959584","MEAN_MOTION":13.19724492,"ECCENTRICITY":0.0001978,"INCLINATION":87.9157,"RA_OF_ASC_NODE":315.5587,"ARG_OF_PERICENTER":81.6958,"MEAN_ANOMALY":278.4399,"EPHEMERIS_TYPE":0,"CLASSIFICATION_TYPE":"U","NORAD_CAT_ID":54138,"ELEMENT_SET_NO":999,"REV_AT_EPOCH":16981,"BSTAR":0.00032847,"MEAN_MOTION_DOT":1.44e-06,"MEAN_MOTION_DDOT":0.0},{"OBJECT_NAME":"ONEWEB-0521","OBJECT_ID":"2022-138AC","EPOCH":"2026-04-25T02:11:23.724384","MEAN_MOTION":13.19723992,"ECCENTRICITY":0.0001808,"INCLINATION":87.9163,"RA_OF_ASC_NODE":315.5397,"ARG_OF_PERICENTER":95.984,"MEAN_ANOMALY":264.1499,"EPHEMERIS_TYPE":0,"CLASSIFICATION_TYPE":"U","NORAD_CAT_ID":54139,"ELEMENT_SET_NO":999,"REV_AT_EPOCH":16976,"BSTAR":-6.279e-05,"MEAN_MOTION_DOT":-1.2e-07,"MEAN_MOTION_DDOT":0.0},{"OBJECT_NAME":"ONEWEB-0522","OBJECT_ID":"2022-138AD","EPOCH":"2026-04-25T01:41:50.597664","MEAN_MOTION":13.19724052,"ECCENTRICITY":0.0001926,"INCLINATION":87.9166,"RA_OF_ASC_NODE":315.5455,"ARG_OF_PERICENTER":85.9912,"MEAN_ANOMALY":274.1441,"EPHEMERIS_TYPE":0,"CLASSIFICATION_TYPE":"U","NORAD_CAT_ID":54140,"ELEMENT_SET_NO":999,"REV_AT_EPOCH":16980,"BSTAR":0.00011604000000000001,"MEAN_MOTION_DOT":5.9e-07,"MEAN_MOTION_DDOT":0.0},{"OBJECT_NAME":"ONEWEB-0523","OBJECT_ID":"2022-138AE","EPOCH":"2026-04-25T05:28:18.514848","MEAN_MOTION":13.20770279,"ECCENTRICITY":0.0001274,"INCLINATION":87.9145,"RA_OF_ASC_NODE":285.0086,"ARG_OF_PERICENTER":120.6125,"MEAN_ANOMALY":239.5134,"EPHEMERIS_TYPE":0,"CLASSIFICATION_TYPE":"U","NORAD_CAT_ID":54141,"ELEMENT_SET_NO":999,"REV_AT_EPOCH":17231,"BSTAR":9.853800000000001e-05,"MEAN_MOTION_DOT":5.3e-07,"MEAN_MOTION_DDOT":0.0},{"OBJECT_NAME":"ONEWEB-0524","OBJECT_ID":"2022-138AF","EPOCH":"2026-04-25T05:12:22.723488","MEAN_MOTION":13.20771273,"ECCENTRICITY":9.83e-05,"INCLINATION":87.9144,"RA_OF_ASC_NODE":285.0081,"ARG_OF_PERICENTER":74.3703,"MEAN_ANOMALY":285.7539,"EPHEMERIS_TYPE":0,"CLASSIFICATION_TYPE":"U","NORAD_CAT_ID":54142,"ELEMENT_SET_NO":999,"REV_AT_EPOCH":17231,"BSTAR":-0.00074588,"MEAN_MOTION_DOT":-2.9e-06,"MEAN_MOTION_DDOT":0.0},{"OBJECT_NAME":"ONEWEB-0525","OBJECT_ID":"2022-138AG","EPOCH":"2026-04-25T02:09:08.175744","MEAN_MOTION":13.19723949,"ECCENTRICITY":0.0001983,"INCLINATION":87.9156,"RA_OF_ASC_NODE":315.5515,"ARG_OF_PERICENTER":82.181,"MEAN_ANOMALY":277.9548,"EPHEMERIS_TYPE":0,"CLASSIFICATION_TYPE":"U","NORAD_CAT_ID":54143,"ELEMENT_SET_NO":999,"REV_AT_EPOCH":16982,"BSTAR":-3.7815e-05,"MEAN_MOTION_DOT":-2e-08,"MEAN_MOTION_DDOT":0.0},{"OBJECT_NAME":"ONEWEB-0526","OBJECT_ID":"2022-138AH","EPOCH":"2026-04-25T06:35:15.630144","MEAN_MOTION":13.19725263,"ECCENTRICITY":0.000178,"INCLINATION":87.9161,"RA_OF_ASC_NODE":315.5141,"ARG_OF_PERICENTER":85.2083,"MEAN_ANOMALY":274.9253,"EPHEMERIS_TYPE":0,"CLASSIFICATION_TYPE":"U","NORAD_CAT_ID":54144,"ELEMENT_SET_NO":999,"REV_AT_EPOCH":16982,"BSTAR":0.00017242,"MEAN_MOTION_DOT":8.2e-07,"MEAN_MOTION_DDOT":0.0},{"OBJECT_NAME":"ONEWEB-0529","OBJECT_ID":"2022-138AJ","EPOCH":"2026-04-25T04:50:37.592736","MEAN_MOTION":13.19724841,"ECCENTRICITY":0.0001927,"INCLINATION":87.9154,"RA_OF_ASC_NODE":315.5417,"ARG_OF_PERICENTER":81.3819,"MEAN_ANOMALY":278.7532,"EPHEMERIS_TYPE":0,"CLASSIFICATION_TYPE":"U","NORAD_CAT_ID":54145,"ELEMENT_SET_NO":999,"REV_AT_EPOCH":16983,"BSTAR":0.00035842000000000003,"MEAN_MOTION_DOT":1.56e-06,"MEAN_MOTION_DDOT":0.0},{"OBJECT_NAME":"ONEWEB-0531","OBJECT_ID":"2022-138AK","EPOCH":"2026-04-24T21:35:34.213920","MEAN_MOTION":13.20772678,"ECCENTRICITY":0.0001014,"INCLINATION":87.9141,"RA_OF_ASC_NODE":285.07,"ARG_OF_PERICENTER":109.9775,"MEAN_ANOMALY":250.1468,"EPHEMERIS_TYPE":0,"CLASSIFICATION_TYPE":"U","NORAD_CAT_ID":54146,"ELEMENT_SET_NO":999,"REV_AT_EPOCH":17227,"BSTAR":0.00025018,"MEAN_MOTION_DOT":1.15e-06,"MEAN_MOTION_DDOT":0.0},{"OBJECT_NAME":"ONEWEB-0535","OBJECT_ID":"2022-138AL","EPOCH":"2026-04-25T02:00:02.192544","MEAN_MOTION":13.19724018,"ECCENTRICITY":0.0001588,"INCLINATION":87.9163,"RA_OF_ASC_NODE":315.5457,"ARG_OF_PERICENTER":97.4965,"MEAN_ANOMALY":262.6348,"EPHEMERIS_TYPE":0,"CLASSIFICATION_TYPE":"U","NORAD_CAT_ID":54147,"ELEMENT_SET_NO":999,"REV_AT_EPOCH":16983,"BSTAR":-5.4179e-06,"MEAN_MOTION_DOT":1.1e-07,"MEAN_MOTION_DDOT":0.0},{"OBJECT_NAME":"ONEWEB-0536","OBJECT_ID":"2022-138AM","EPOCH":"2026-04-25T04:33:45.195552","MEAN_MOTION":13.20773237,"ECCENTRICITY":8.09e-05,"INCLINATION":87.9128,"RA_OF_ASC_NODE":285.0404,"ARG_OF_PERICENTER":107.9244,"MEAN_ANOMALY":252.1977,"EPHEMERIS_TYPE":0,"CLASSIFICATION_TYPE":"U","NORAD_CAT_ID":54148,"ELEMENT_SET_NO":999,"REV_AT_EPOCH":17230,"BSTAR":5.689100000000001e-05,"MEAN_MOTION_DOT":3.6e-07,"MEAN_MOTION_DDOT":0.0},{"OBJECT_NAME":"ONEWEB-0527","OBJECT_ID":"2022-166A","EPOCH":"2026-04-25T02:34:53.642784","MEAN_MOTION":13.2182598,"ECCENTRICITY":0.0001797,"INCLINATION":87.9212,"RA_OF_ASC_NODE":254.5641,"ARG_OF_PERICENTER":98.3801,"MEAN_ANOMALY":261.7537,"EPHEMERIS_TYPE":0,"CLASSIFICATION_TYPE":"U","NORAD_CAT_ID":54642,"ELEMENT_SET_NO":999,"REV_AT_EPOCH":16452,"BSTAR":0.00031682,"MEAN_MOTION_DOT":1.44e-06,"MEAN_MOTION_DDOT":0.0},{"OBJECT_NAME":"ONEWEB-0528","OBJECT_ID":"2022-166B","EPOCH":"2026-04-25T02:43:21.057024","MEAN_MOTION":13.21824122,"ECCENTRICITY":0.0001926,"INCLINATION":87.9213,"RA_OF_ASC_NODE":254.5668,"ARG_OF_PERICENTER":92.6615,"MEAN_ANOMALY":267.4739,"EPHEMERIS_TYPE":0,"CLASSIFICATION_TYPE":"U","NORAD_CAT_ID":54643,"ELEMENT_SET_NO":999,"REV_AT_EPOCH":16453,"BSTAR":4.1153000000000004e-05,"MEAN_MOTION_DOT":3e-07,"MEAN_MOTION_DDOT":0.0},{"OBJECT_NAME":"ONEWEB-0539","OBJECT_ID":"2022-166C","EPOCH":"2026-04-25T01:50:05.434656","MEAN_MOTION":13.21827518,"ECCENTRICITY":0.0002066,"INCLINATION":87.9223,"RA_OF_ASC_NODE":254.5427,"ARG_OF_PERICENTER":103.4721,"MEAN_ANOMALY":256.6643,"EPHEMERIS_TYPE":0,"CLASSIFICATION_TYPE":"U","NORAD_CAT_ID":54644,"ELEMENT_SET_NO":999,"REV_AT_EPOCH":16452,"BSTAR":6.8935e-05,"MEAN_MOTION_DOT":4.1e-07,"MEAN_MOTION_DDOT":0.0},{"OBJECT_NAME":"ONEWEB-0540","OBJECT_ID":"2022-166D","EPOCH":"2026-04-25T01:59:58.525728","MEAN_MOTION":13.21827488,"ECCENTRICITY":0.0001922,"INCLINATION":87.9214,"RA_OF_ASC_NODE":254.5752,"ARG_OF_PERICENTER":102.6818,"MEAN_ANOMALY":257.4531,"EPHEMERIS_TYPE":0,"CLASSIFICATION_TYPE":"U","NORAD_CAT_ID":54645,"ELEMENT_SET_NO":999,"REV_AT_EPOCH":16451,"BSTAR":4.9089000000000004e-05,"MEAN_MOTION_DOT":3.3e-07,"MEAN_MOTION_DDOT":0.0},{"OBJECT_NAME":"ONEWEB-0542","OBJECT_ID":"2022-166E","EPOCH":"2026-04-25T07:31:37.812576","MEAN_MOTION":13.21827164,"ECCENTRICITY":0.0002087,"INCLINATION":87.9224,"RA_OF_ASC_NODE":254.4932,"ARG_OF_PERICENTER":105.8968,"MEAN_ANOMALY":254.2396,"EPHEMERIS_TYPE":0,"CLASSIFICATION_TYPE":"U","NORAD_CAT_ID":54646,"ELEMENT_SET_NO":999,"REV_AT_EPOCH":16455,"BSTAR":0.00010862,"MEAN_MOTION_DOT":5.8e-07,"MEAN_MOTION_DDOT":0.0}]