ONEWEB-0520             
1 54138U 22138AB  26115.05808981  .00000144  00000+0  32847-3 0  9996
2 54138  87.9157 315.5587 0001978  81.6958 278.4399 13.19724492169815
ONEWEB-0521             
1 54139U 22138AC  26115.09124681 -.00000012  00000+0 -62790-4 0  9996
2 54139  87.9163 315.5397 0001808  95.9840 264.1499 13.19723992169763
ONEWEB-0522             
1 54140U 22138AD  26115.07072451  .00000059  00000+0  11604-3 0  9999
2 54140  87.9166 315.5455 0001926  85.9912 274.1441 13.19724052169804
ONEWEB-0523             
1 54141U 22138AE  26115.22799207  .00000053  00000+0  98538-4 0  9998
2 54141  87.9145 285.0086 0001274 120.6125 239.5134 13.20770279172310
ONEWEB-0524             
1 54142U 22138AF  26115.21692967 -.00000290  00000+0 -74588-3 0  9996
2 54142  87.9144 285.0081 0000983  74.3703 285.7539 13.20771273172315
ONEWEB-0525             
1 54143U 22138AG  26115.08967796 -.00000002  00000+0 -37815-4 0  9991
2 54143  87.9156 315.5515 0001983  82.1810 277.9548 13.19723949169827
ONEWEB-0526             
1 54144U 22138AH  26115.27448646  .00000082  00000+0  17242-3 0  9998
2 54144  87.9161 315.5141 0001780  85.2083 274.9253 13.19725263169821
ONEWEB-0529             
1 54145U 22138AJ  26115.20182399  .00000156  00000+0  35842-3 0  9990
2 54145  87.9154 315.5417 0001927  81.3819 278.7532 13.19724841169831
ONEWEB-0531             
1 54146U 22138AK  26114.89970155  .00000115  00000+0  25018-3 0  9999
2 54146  87.9141 285.0700 0001014 109.9775 250.1468 13.20772678172276
ONEWEB-0535             
1 54147U 22138AL  26115.08335871  .00000011  00000+0 -54179-5 0  9990
2 54147  87.9163 315.5457 0001588  97.4965 262.6348 13.19724018169833
ONEWEB-0536             
1 54148U 22138AM  26115.19010643  .00000036  00000+0  56891-4 0  9998
2 54148  87.9128 285.0404 0000809 107.9244 252.1977 13.20773237172307
ONEWEB-0527             
1 54642U 22166A   26115.10756531  .00000144  00000+0  31682-3 0  9992
2 54642  87.9212 254.5641 0001797  98.3801 261.7537 13.21825980164520
ONEWEB-0528             
1 54643U 22166B   26115.11343816  .00000030  00000+0  41153-4 0  9991
2 54643  87.9213 254.5668 0001926  92.6615 267.4739 13.21824122164530
ONEWEB-0539             
1 54644U 22166C   26115.07645179  .00000041  00000+0  68935-4 0  9993
2 54644  87.9223 254.5427 0002066 103.4721 256.6643 13.21827518164525
ONEWEB-0540             
1 54645U 22166D   26115.08331627  .00000033  00000+0  49089-4 0  9995
2 54645  87.9214 254.5752 0001922 102.6818 257.4531 13.21827488164515
ONEWEB-0542             
1 54646U 22166E   26115.31363209  .00000058  00000+0  10862-3 0  9996
2 54646  87.9224 254.4932 0002087 105.8968 254.2396 13.21827164164559
